     2              NAVIGATION DATA                         RINEX VERSION / TYPE
CCRINEXN V1.6.0 UX  CDDIS               08-OCT-16 15:33     PGM / RUN BY / DATE 
IGS BROADCAST EPHEMERIS FILE                                COMMENT             
    0.1490D-07  0.7451D-08 -0.1192D-06 -0.5960D-07          ION ALPHA           
    0.1065D+06  0.3277D+05 -0.2621D+06 -0.6554D+05          ION BETA            
    0.465661287308D-08 0.799360577730D-14   589824     1917 DELTA-UTC: A0,A1,T,W
    17                                                      LEAP SECONDS        
                                                            END OF HEADER       
19 16 10  7 16  0  0.0-0.522071029991D-03 0.568434188608D-12 0.000000000000D+00
    0.550000000000D+02-0.703437500000D+02 0.419731769227D-08 0.149142576492D+01
   -0.360608100891D-05 0.104422807926D-01 0.846758484840D-05 0.515363517380D+04
    0.489600000000D+06-0.201165676117D-06 0.782615953610D+00 0.223517417908D-07
    0.974906604842D+00 0.227531250000D+03 0.874358799891D+00-0.797318925819D-08
    0.364300888880D-10 0.100000000000D+01 0.191700000000D+04 0.000000000000D+00
    0.200000000000D+01 0.000000000000D+00-0.149011611938D-07 0.550000000000D+02
    0.482400000000D+06 0.400000000000D+01 0.000000000000D+00 0.000000000000D+00
20 16 10  7 16  0  0.0 0.439582858235D-03 0.193267624127D-11 0.000000000000D+00
    0.960000000000D+02-0.725000000000D+01 0.558666135575D-08-0.250280144578D+01
   -0.350177288055D-06 0.470239238348D-02 0.633299350738D-05 0.515358820534D+04
    0.489600000000D+06 0.670552253723D-07 0.269411891271D+01 0.111758708954D-06
    0.926667881814D+00 0.237812500000D+03 0.145626337172D+01-0.850642578598D-08
   -0.328585110509D-10 0.100000000000D+01 0.191700000000D+04 0.000000000000D+00
    0.200000000000D+01 0.000000000000D+00-0.838190317154D-08 0.960000000000D+02
    0.482400000000D+06 0.000000000000D+00 0.000000000000D+00 0.000000000000D+00
21 16 10  7 16  0  0.0-0.532622449100D-03-0.227373675443D-12 0.000000000000D+00
    0.690000000000D+02-0.114062500000D+02 0.542272582393D-08 0.902447123985D+00
   -0.633299350738D-06 0.233389758505D-01 0.868365168571D-05 0.515381341743D+04
    0.489600000000D+06-0.420957803726D-06 0.170405116032D+01-0.726431608200D-07
    0.937172811272D+00 0.209468750000D+03-0.175314785701D+01-0.881036665845D-08
    0.201794123078D-09 0.100000000000D+01 0.191700000000D+04 0.000000000000D+00
    0.200000000000D+01 0.000000000000D+00-0.977888703346D-08 0.690000000000D+02
    0.482400000000D+06 0.000000000000D+00 0.000000000000D+00 0.000000000000D+00
22 16 10  7 16  0  0.0 0.225057359785D-03-0.103455022327D-10 0.000000000000D+00
    0.830000000000D+02-0.521875000000D+01 0.562702010226D-08-0.213668734382D+01
   -0.281259417534D-06 0.739136827178D-02 0.647269189358D-05 0.515370441437D+04
    0.489600000000D+06 0.987201929092D-07 0.274610061990D+01 0.335276126862D-07
    0.923349468663D+00 0.230593750000D+03-0.186033033484D+01-0.841963642594D-08
   -0.557166065346D-10 0.100000000000D+01 0.191700000000D+04 0.000000000000D+00
    0.200000000000D+01 0.000000000000D+00-0.176951289177D-07 0.830000000000D+02
    0.482400000000D+06 0.400000000000D+01 0.000000000000D+00 0.000000000000D+00
23 16 10  7 16  0  0.0-0.192549545318D-03-0.125055521494D-11 0.000000000000D+00
    0.390000000000D+02 0.290312500000D+02 0.473269713583D-08-0.289401167772D+01
    0.133179128170D-05 0.111357041169D-01 0.918656587601D-05 0.515360792732D+04
    0.489600000000D+06-0.111758708954D-07-0.245795196747D+01-0.195577740669D-06
    0.945578644929D+00 0.191875000000D+03-0.252639790917D+01-0.794783105907D-08
   -0.324299222650D-09 0.100000000000D+01 0.191700000000D+04 0.000000000000D+00
    0.200000000000D+01 0.000000000000D+00-0.200234353542D-07 0.390000000000D+02
    0.482400000000D+06 0.400000000000D+01 0.000000000000D+00 0.000000000000D+00
24 16 10  7 16  0  0.0-0.242432579398D-04-0.568434188608D-12 0.000000000000D+00
    0.900000000000D+02 0.690312500000D+02 0.464876506830D-08 0.284327323585D+01
    0.363029539585D-05 0.475550862029D-02 0.685267150402D-05 0.515372747421D+04
    0.489600000000D+06-0.260770320892D-07-0.143266963228D+01-0.577419996262D-07
    0.947703429572D+00 0.240437500000D+03 0.391221982092D+00-0.818462663684D-08
    0.846463830045D-10 0.100000000000D+01 0.191700000000D+04 0.000000000000D+00
    0.280000000000D+01 0.000000000000D+00 0.232830643654D-08 0.900000000000D+02
    0.482400000000D+06 0.400000000000D+01 0.000000000000D+00 0.000000000000D+00
25 16 10  7 16  0  0.0-0.259350053966D-03-0.693489710102D-11 0.000000000000D+00
    0.820000000000D+02-0.120000000000D+02 0.417124517768D-08 0.732546334478D+00
   -0.815838575363D-06 0.561184377875D-02 0.455975532532D-05 0.515369282341D+04
    0.489600000000D+06-0.260770320892D-07-0.356515707727D+00 0.651925802231D-07
    0.978366777680D+00 0.301437500000D+03 0.778999546972D+00-0.815105380982D-08
   -0.364300888880D-10 0.100000000000D+01 0.191700000000D+04 0.000000000000D+00
    0.280000000000D+01 0.000000000000D+00 0.558793544769D-08 0.820000000000D+02
    0.484020000000D+06 0.400000000000D+01 0.000000000000D+00 0.000000000000D+00
26 16 10  7 16  0  0.0-0.482849776745D-03-0.625277607469D-11 0.000000000000D+00
    0.630000000000D+02-0.191250000000D+02 0.457126183998D-08 0.322869673001D+00
   -0.925734639168D-06 0.104427034967D-02 0.406429171562D-05 0.515359134483D+04
    0.489600000000D+06 0.689178705216D-07-0.367831360053D+00-0.651925802231D-07
    0.960258515833D+00 0.299843750000D+03-0.139950338933D+00-0.831677499849D-08
    0.192865176466D-10 0.100000000000D+01 0.191700000000D+04 0.000000000000D+00
    0.200000000000D+01 0.000000000000D+00 0.698491930962D-08 0.630000000000D+02
    0.482400000000D+06 0.400000000000D+01 0.000000000000D+00 0.000000000000D+00
27 16 10  7 16  0  0.0 0.148841179907D-03 0.488853402203D-11 0.000000000000D+00
    0.110000000000D+02-0.652187500000D+02 0.421160400164D-08-0.160525843574D+01
   -0.353902578354D-05 0.383213872556D-02 0.828690826893D-05 0.515365576172D+04
    0.489600000000D+06 0.335276126862D-07 0.683546886734D+00-0.353902578354D-07
    0.972750311869D+00 0.224375000000D+03 0.339803093134D+00-0.792961601462D-08
    0.117504894550D-09 0.100000000000D+01 0.191700000000D+04 0.000000000000D+00
    0.200000000000D+01 0.000000000000D+00 0.186264514923D-08 0.110000000000D+02
    0.482400000000D+06 0.400000000000D+01 0.000000000000D+00 0.000000000000D+00
28 16 10  7 16  0  0.0 0.557550694794D-03 0.272848410532D-11 0.000000000000D+00
    0.850000000000D+02-0.101875000000D+02 0.408409869053D-08-0.760263321687D+00
   -0.353902578354D-06 0.199430838693D-01 0.499747693539D-05 0.515363050652D+04
    0.489600000000D+06-0.283122062683D-06-0.280433677440D+00 0.184401869774D-06
    0.989523699005D+00 0.305000000000D+03-0.160987639999D+01-0.834320467082D-08
    0.126076680171D-09 0.100000000000D+01 0.191700000000D+04 0.000000000000D+00
    0.400000000000D+01 0.000000000000D+00-0.107102096081D-07 0.850000000000D+02
    0.482400000000D+06 0.400000000000D+01 0.000000000000D+00 0.000000000000D+00
29 16 10  7 16  0  0.0 0.648499466479D-03-0.136424205266D-11 0.000000000000D+00
    0.530000000000D+02-0.520937500000D+02 0.410338520818D-08 0.386165774406D+00
   -0.265799462795D-05 0.510244513862D-03 0.832602381706D-05 0.515374266815D+04
    0.489600000000D+06 0.149011611938D-07 0.744065746422D+00 0.372529029846D-08
    0.978799153359D+00 0.233531250000D+03 0.914324238417D-01-0.783211195319D-08
    0.139291516337D-09 0.100000000000D+01 0.191700000000D+04 0.000000000000D+00
    0.280000000000D+01 0.000000000000D+00-0.102445483208D-07 0.530000000000D+02
    0.487110000000D+06 0.400000000000D+01 0.000000000000D+00 0.000000000000D+00
30 16 10  7 16  0  0.0 0.153258908540D-03 0.136424205266D-11 0.000000000000D+00
    0.680000000000D+02 0.728437500000D+02 0.460626329793D-08 0.188362255370D+01
    0.385753810406D-05 0.239257258363D-02 0.705569982529D-05 0.515376847839D+04
    0.489600000000D+06-0.428408384323D-07-0.134091497732D+01-0.149011611938D-07
    0.950416441871D+00 0.238250000000D+03-0.312329922289D+01-0.819498421113D-08
    0.246438836595D-10 0.100000000000D+01 0.191700000000D+04 0.000000000000D+00
    0.200000000000D+01 0.000000000000D+00 0.372529029846D-08 0.680000000000D+02
    0.482418000000D+06 0.400000000000D+01 0.000000000000D+00 0.000000000000D+00
31 16 10  7 16  0  0.0 0.243796501309D-03-0.216004991671D-11 0.000000000000D+00
    0.230000000000D+02 0.700625000000D+02 0.415767318378D-08 0.171704885683D+01
    0.383518636227D-05 0.837253860664D-02 0.626780092716D-05 0.515356931305D+04
    0.489600000000D+06-0.931322574616D-08-0.137323477441D+01 0.137835741043D-06
    0.969431932365D+00 0.261406250000D+03-0.375764046504D+00-0.791997275580D-08
   -0.303584074067D-10 0.100000000000D+01 0.191700000000D+04 0.000000000000D+00
    0.200000000000D+01 0.000000000000D+00-0.135041773319D-07 0.230000000000D+02
    0.482400000000D+06 0.400000000000D+01 0.000000000000D+00 0.000000000000D+00
32 16 10  7 16  0  0.0-0.144741032273D-03-0.154614099301D-10 0.000000000000D+00
    0.450000000000D+02 0.247187500000D+02 0.446732893933D-08-0.116346688812D+01
    0.115111470222D-05 0.630543450825D-03 0.934489071369D-05 0.515365429115D+04
    0.489600000000D+06 0.987201929092D-07-0.245988938303D+01 0.223517417908D-07
    0.959231121632D+00 0.203062500000D+03-0.236979469830D+01-0.794068790438D-08
   -0.355014787791D-09 0.100000000000D+01 0.191700000000D+04 0.000000000000D+00
    0.200000000000D+01 0.000000000000D+00 0.931322574616D-09 0.450000000000D+02
    0.485130000000D+06 0.400000000000D+01 0.000000000000D+00 0.000000000000D+00
